GSAT0213 (GALILEO 17)   
1 41861U 16069C   26116.93335348  .00000042  00000+0  00000+0 0  9990
2 41861  55.4672 102.5058 0005848 302.6930  57.2437  1.70474535 58647
GSAT0214 (GALILEO 18)   
1 41862U 16069D   26117.07947229  .00000042  00000+0  00000+0 0  9994
2 41862  55.4657 102.4944 0004907 307.7513  52.1969  1.70474264 58779
SES-15 (WAAS/PRN 133)   
1 42709U 17026A   26117.49968382  .00000051  00000+0  00000+0 0  9998
2 42709   0.0241 329.4404 0000646  44.3062 252.4676  1.00270232  6928
QZS-2 (QZSS/PRN 194)    
1 42738U 17028A   26116.23428738 -.00000266  00000+0  00000+0 0  9998
2 42738  39.5095 243.9120 0740318 270.8047 281.9812  1.00247520  7109
QZS-3 (QZSS/PRN 199)    
1 42917U 17048A   26117.27683631 -.00000358  00000+0  00000+0 0  9991
2 42917   0.0517 180.1237 0001373 205.2611  56.5763  1.00270787 31740
COSMOS 2522 (752)       
1 42939U 17055A   26116.97373522 -.00000005  00000+0  00000+0 0  9993
2 42939  64.0763 193.6271 0009536 236.7344 123.2243  2.13101764 66886
QZS-4 (QZSS/PRN 195)    
1 42965U 17062A   26117.47714659 -.00000346  00000+0  00000+0 0  9994
2 42965  40.1380 344.1289 0746132 270.9159 272.2116  1.00265822 31293
BEIDOU-3 M1 (C19)       
1 43001U 17069A   26117.12218557 -.00000045  00000+0  00000+0 0  9997
2 43001  56.6503  64.7651 0012125 318.4958  41.3809  1.86230945 57659
BEIDOU-3 M2 (C20)       
1 43002U 17069B   26117.06080258 -.00000044  00000+0  00000+0 0  9995
2 43002  56.6494  64.8032 0010166 339.2999  20.6277  1.86230423 57641
GSAT0215 (GALILEO 19)   
1 43055U 17079A   26113.46347810 -.00000022  00000+0  00000+0 0  9990
2 43055  55.0907 223.0118 0001428 264.4741  95.5096  1.70474699 52058
GSAT0216 (GALILEO 20)   
1 43056U 17079B   26114.92781412 -.00000034  00000+0  00000+0 0  9996
2 43056  55.0895 222.9715 0002775 284.1808  75.7828  1.70474805 52091
GSAT0217 (GALILEO 21)   
1 43057U 17079C   26116.32174354 -.00000039  00000+0  00000+0 0  9999
2 43057  55.0878 222.9311 0002278 305.0014  54.9682  1.70474773 52108
GSAT0218 (GALILEO 22)   
1 43058U 17079D   26115.95522277 -.00000039  00000+0  00000+0 0  9999
2 43058  55.0879 222.9388 0003183 277.2874  82.6679  1.70474761 52127
BEIDOU-3 M7 (C27)       
1 43107U 18003A   26114.11756823 -.00000045  00000+0  00000+0 0  9992
2 43107  54.3768 304.1996 0005304  82.0952 277.9663  1.86227876 56345
BEIDOU-3 M8 (C28)       
1 43108U 18003B   26116.21099368 -.00000057  00000+0  00000+0 0  9993
2 43108  54.3678 304.1083 0002185 285.2373  74.7389  1.86230705 56399
BEIDOU-3 M4 (C22)       
1 43207U 18018A   26117.19045973 -.00000045  00000+0  00000+0 0  9997
2 43207  56.6092  64.8286 0007867   2.3650 357.6071  1.86231023 55795
BEIDOU-3 M3 (C21)       
1 43208U 18018B   26117.25690971 -.00000046  00000+0  00000+0 0  9990
2 43208  56.6088  64.8304 0010023 330.2969  29.6144  1.86230915 55792
